OBJECT_NAME,OBJECT_ID,EPOCH,MEAN_MOTION,ECCENTRICITY,INCLINATION,RA_OF_ASC_NODE,ARG_OF_PERICENTER,MEAN_ANOMALY,EPHEMERIS_TYPE,CLASSIFICATION_TYPE,NORAD_CAT_ID,ELEMENT_SET_NO,REV_AT_EPOCH,BSTAR,MEAN_MOTION_DOT,MEAN_MOTION_DDOT
TDRS 3,1988-091B,2026-07-14T07:54:49.546368,1.00262815,.0037046,12.5813,340.8203,355.5070,25.3820,0,U,19548,999,12566,0,-.307E-5,0
FLTSATCOM 8 (USA 46),1989-077A,2026-07-14T10:57:38.126592,1.00263382,.00033967,12.4138,350.9960,70.8870,160.3353,0,U,20253,999,26083,0,-.377E-5,0
SKYNET 4C,1990-079A,2026-07-14T15:16:58.714752,0.98578465,.00027692,13.3294,349.6402,135.0060,231.5470,0,U,20776,999,31,0,-.147E-5,0
TDRS 5,1991-054B,2026-07-14T15:16:04.865088,1.00273266,.00074441,14.0676,353.5733,258.0671,102.1744,0,U,21639,999,12798,0,.74E-6,0
TDRS 6,1993-003B,2026-07-14T09:12:11.663712,1.00280051,.00083303,14.1832,356.8533,184.0337,203.3691,0,U,22314,999,12268,0,-.306E-5,0
UFO 2 (USA 95),1993-056A,2026-07-14T15:06:38.933856,1.00270159,.00025286,11.9044,3.3998,8.1879,176.1845,0,U,22787,999,11882,0,.114E-5,0
UFO 4 (USA 108),1995-003A,2026-07-14T08:34:32.409120,1.00276186,.00031399,9.6755,13.0133,98.9497,121.2538,0,U,23467,999,11522,0,-.31E-6,0
TDRS 7,1995-035B,2026-07-14T14:48:47.088288,1.00274030,.00115033,13.3657,347.9978,86.3373,169.5937,0,U,23613,999,11352,0,-.25E-5,0
USA 115 (MILSTAR-1 2),1995-060A,2026-07-14T11:16:37.562016,1.00272602,.00060413,14.0825,3.5405,123.5098,244.4197,0,U,23712,999,3316,0,-.214E-5,0
INMARSAT 3-F1,1996-020A,2026-07-14T13:10:10.320384,0.99980166,.00044689,10.6560,46.3781,88.7377,230.7520,0,U,23839,999,11052,0,.38E-6,0
INMARSAT 3-F2,1996-053A,2026-07-14T12:17:18.650688,0.99991922,.00063764,9.9164,53.6538,54.3811,131.1058,0,U,24307,999,10919,0,-.371E-5,0
INMARSAT 3-F3,1996-070A,2026-07-14T06:38:37.488192,0.99994896,.00035586,10.3748,49.3890,76.1001,281.1981,0,U,24674,999,10817,0,.3E-6,0
USA 134,1997-065A,2026-07-14T13:43:19.801344,1.00273650,.00025476,12.8161,21.5134,334.1074,30.2232,0,U,25019,999,3323,0,-.75E-6,0
INMARSAT 3-F5,1998-006B,2026-07-14T11:26:59.069184,1.00273231,.00043205,9.7523,52.9833,62.0164,295.1157,0,U,25153,999,10416,0,-.304E-5,0
ABS-6,1999-053A,2026-07-14T13:26:39.213312,1.00272356,.00033137,0.0564,261.7597,192.6859,198.6232,0,U,25924,999,9811,0,-.127E-5,0
UFO 10 (USA 146),1999-063A,2026-07-14T08:10:30.535680,1.00272737,.00015758,9.8539,27.0633,117.2371,247.5841,0,U,25967,999,9762,0,-.2E-5,0
ASIASTAR,2000-016A,2026-07-14T13:54:56.687328,1.00271402,.00037452,9.1914,57.8570,66.9841,121.3484,0,U,26107,999,9619,0,-.347E-5,0
USA 149 (DSP 20),2000-024A,2026-07-14T06:04:24.566304,1.00281772,.0001793,13.1904,11.6558,311.2491,255.6644,0,U,26356,999,3318,0,.85E-6,0
TDRS 8,2000-034A,2026-07-14T13:49:12.238176,1.00272476,.00040423,12.7255,31.0851,36.2901,157.2123,0,U,26388,999,9545,0,-.21E-5,0
NSS-11,2000-059A,2026-07-14T14:15:16.418592,1.00270872,.00028312,2.1952,81.0628,38.0292,203.1731,0,U,26554,999,4156,0,.15E-6,0
USA 153,2000-065A,2026-07-14T10:59:05.724096,1.00272890,.0002084,11.6701,35.1895,58.1340,138.2352,0,U,26575,999,3320,0,-.338E-5,0
AMC-6,2000-067A,2026-07-14T13:03:38.856672,1.00270575,.00038011,0.2198,83.6555,42.5881,227.0186,0,U,26580,999,9416,0,.81E-6,0
USA 157 (MILSTAR-2 2),2001-009A,2026-07-14T06:04:38.717760,1.00273806,.00405095,11.5719,19.5914,179.3244,34.2726,0,U,26715,999,3321,0,.98E-6,0
INTELSAT 902 (IS-902),2001-039A,2026-07-14T13:10:45.728832,1.00272956,.00042175,6.1834,71.4466,40.6431,327.9041,0,U,26900,999,9097,0,-.295E-5,0
USA 164 (MILSTAR-2 3),2002-001A,2026-07-14T04:57:12.044160,1.00276857,.00985316,11.2112,21.7379,8.9755,354.6874,0,U,27168,999,3323,0,.87E-6,0
INTELSAT 904 (IS-904),2002-007A,2026-07-14T11:00:14.789664,1.00270775,.00053576,6.9859,68.8533,25.0293,332.0278,0,U,27380,999,5203,0,-.238E-5,0
DIRECTV 5 (TEMPO 1),2002-023A,2026-07-14T13:17:48.198048,1.00271214,.00030579,4.9455,74.9673,45.4732,261.3095,0,U,27426,999,8839,0,-.68E-6,0
INTELSAT 905 (IS-905),2002-027A,2026-07-14T13:02:12.505920,1.00271728,.00034642,6.8199,69.4663,47.3616,233.9172,0,U,27438,999,5163,0,.81E-6,0
GALAXY 3C (G-3C),2002-030A,2026-07-14T13:33:09.190944,1.00270677,.000151,3.8023,77.6189,35.5728,287.6872,0,U,27445,999,4676,0,-.163E-5,0
INTELSAT 906 (IS-906),2002-041A,2026-07-14T05:10:03.311904,1.00272945,.00038443,5.8686,72.5873,23.7209,337.4316,0,U,27513,999,8730,0,.1E-7,0
NIMIQ 2,2002-062A,2026-07-14T05:37:38.604576,1.00270303,.00052645,9.5064,56.6084,54.5520,156.1381,0,U,27632,999,4445,0,-.82E-6,0
